NORAD_CAT_ID,OBJECT_NAME,OBJECT_TYPE,EPOCH,MEAN_MOTION,ECCENTRICITY,INCLINATION,RA_OF_ASC_NODE,ARG_OF_PERICENTER,MEAN_ANOMALY,BSTAR,MEAN_MOTION_DOT,MEAN_MOTION_DDOT,TLE_LINE0,TLE_LINE1,TLE_LINE2,SEMIMAJOR_AXIS,PERIOD,APOGEE,PERIGEE,DECAYED
51809.0,STARLINK-3607,PAYLOAD,2023-08-29 12:21:26,15.08834352,0.0001247,53.2167,163.4227,93.8189,266.2946,-2.2047e-05,-6.39e-06,0.0,0 STARLINK-3607,1 51809U 22017AT  23241.51489158 -.00000639  00000-0 -22047-4 0  9997,2 51809  53.2167 163.4227 0001247  93.8189 266.2946 15.08834352 84697,6917.898,95.438,540.625,538.9,0.0
51809.0,STARLINK-3607,PAYLOAD,2023-08-30 12:12:13,15.08842939,0.0001352,53.2176,158.9635,92.7417,267.373,8.4784e-06,-1.53e-06,0.0,0 STARLINK-3607,1 51809U 22017AT  23242.50848727 -.00000153  00000-0  84784-5 0  9995,2 51809  53.2176 158.9635 0001352  92.7417 267.3730 15.08842939 84848,6917.871,95.437,540.672,538.801,0.0
51809.0,STARLINK-3607,PAYLOAD,2023-09-01 00:46:06,15.08832552,0.0001231,53.2153,152.1304,66.5608,293.5513,-0.00022441,-3.857e-05,0.0,0 STARLINK-3607,1 51809U 22017AT  23244.03202242 -.00003857  00000-0 -22441-3 0  9996,2 51809  53.2153 152.1304 0001231  66.5608 293.5513 15.08832552 85075,6917.903,95.438,540.62,538.917,0.0
51809.0,STARLINK-3607,PAYLOAD,2023-09-01 18:15:20,15.08840398,0.0001278,53.217,148.8548,82.309,277.8047,3.0446e-05,1.97e-06,0.0,0 STARLINK-3607,1 51809U 22017AT  23244.76064886  .00000197  00000-0  30446-4 0  9993,2 51809  53.2170 148.8548 0001278  82.3090 277.8047 15.08840398 85184,6917.879,95.438,540.628,538.86,0.0
51809.0,STARLINK-3607,PAYLOAD,2023-09-02 02:12:15,15.08851565,0.0001452,53.2178,147.3689,88.5761,271.5398,7.8877e-05,9.68e-06,0.0,0 STARLINK-3607,1 51809U 22017AT  23245.09184222  .00000968  00000-0  78877-4 0  9993,2 51809  53.2178 147.3689 0001452  88.5761 271.5398 15.08851565 85233,6917.845,95.437,540.715,538.706,0.0
51809.0,STARLINK-3607,PAYLOAD,2023-09-02 10:09:11,15.0883357,0.0001687,53.2167,145.8796,82.2556,277.8627,-1.1424e-05,-4.7e-06,0.0,0 STARLINK-3607,1 51809U 22017AT  23245.42305466 -.00000470  00000-0 -11424-4 0  9990,2 51809  53.2167 145.8796 0001687  82.2556 277.8627 15.08833570 85281,6917.9,95.438,540.932,538.598,0.0
51809.0,STARLINK-3607,PAYLOAD,2023-09-03 02:03:02,15.08844949,0.0001732,53.2174,142.9071,89.9103,270.2088,6.6765e-05,7.75e-06,0.0,0 STARLINK-3607,1 51809U 22017AT  23246.08544420  .00000775  00000-0  66765-4 0  9992,2 51809  53.2174 142.9071 0001732  89.9103 270.2088 15.08844949 85387,6917.865,95.437,540.928,538.532,0.0
51809.0,STARLINK-3607,PAYLOAD,2023-09-03 09:59:57,15.08854553,0.0001927,53.2197,141.4209,89.2014,270.9199,7.6563e-06,-1.66e-06,0.0,0 STARLINK-3607,1 51809U 22017AT  23246.41663825 -.00000166  00000-0  76563-5 0  9993,2 51809  53.2197 141.4209 0001927  89.2014 270.9199 15.08854553 85437,6917.836,95.437,541.034,538.368,0.0
51809.0,STARLINK-3607,PAYLOAD,2023-09-04 01:53:51,15.08826245,0.0001476,53.2184,138.4466,86.5809,273.5352,-0.00018105,-3.167e-05,0.0,0 STARLINK-3607,1 51809U 22017AT  23247.07906662 -.00003167  00000-0 -18105-3 0  9996,2 51809  53.2184 138.4466 0001476  86.5809 273.5352 15.08826245 85533,6917.922,95.438,540.809,538.766,0.0
51809.0,STARLINK-3607,PAYLOAD,2023-09-04 03:29:14,15.08827091,0.0001321,53.2179,138.1487,82.6919,277.4224,-0.00017348,-3.047e-05,0.0,0 STARLINK-3607,1 51809U 22017AT  23247.14530447 -.00003047  00000-0 -17348-3 0  9993,2 51809  53.2179 138.1487 0001321  82.6919 277.4224 15.08827091 85547,6917.92,95.438,540.699,538.871,0.0
51809.0,STARLINK-3607,PAYLOAD,2023-09-04 16:12:19,15.08825744,8.58e-05,53.2163,135.7693,98.3387,261.7703,-3.29e-06,-3.4e-06,0.0,0 STARLINK-3607,1 51809U 22017AT  23247.67522325 -.00000340  00000-0 -32900-5 0  9993,2 51809  53.2163 135.7693 0000858  98.3387 261.7703 15.08825744 85629,6917.924,95.438,540.383,539.195,0.0
51809.0,STARLINK-3607,PAYLOAD,2023-09-05 01:44:37,15.08855288,0.0001148,53.2172,133.9876,95.0193,265.093,-0.00022959,-3.941e-05,0.0,0 STARLINK-3607,1 51809U 22017AT  23248.07265570 -.00003941  00000-0 -22959-3 0  9995,2 51809  53.2172 133.9876 0001148  95.0193 265.0930 15.08855288 85685,6917.834,95.437,540.493,538.904,0.0
51809.0,STARLINK-3607,PAYLOAD,2023-09-06 01:35:24,15.08835396,0.0001374,53.2171,129.526,82.0444,278.0704,0.00018995,2.736e-05,0.0,0 STARLINK-3607,1 51809U 22017AT  23249.06625688  .00002736  00000-0  18995-3 0  9999,2 51809  53.2171 129.5260 0001374  82.0444 278.0704 15.08835396 85836,6917.894,95.438,540.71,538.809,0.0
51809.0,STARLINK-3607,PAYLOAD,2023-09-06 22:15:24,15.08848731,0.0001356,53.2168,125.66,85.9453,274.1694,7.2216e-05,8.62e-06,0.0,0 STARLINK-3607,1 51809U 22017AT  23249.92737181  .00000862  00000-0  72216-4 0  9991,2 51809  53.2168 125.6600 0001356  85.9453 274.1694 15.08848731 85965,6917.854,95.437,540.657,538.781,0.0
51809.0,STARLINK-3607,PAYLOAD,2023-09-07 01:26:11,15.08849019,0.0001362,53.2168,125.0653,85.7355,274.3792,7.2618e-05,8.68e-06,0.0,0 STARLINK-3607,1 51809U 22017AT  23250.05985091  .00000868  00000-0  72618-4 0  9994,2 51809  53.2168 125.0653 0001362  85.7355 274.3792 15.08849019 85986,6917.853,95.437,540.66,538.776,0.0
51809.0,STARLINK-3607,PAYLOAD,2023-09-07 15:44:40,15.08836222,0.0001405,53.2166,122.3878,91.4954,268.6199,2.0355e-05,3.6e-07,0.0,0 STARLINK-3607,1 51809U 22017AT  23250.65601947  .00000036  00000-0  20355-4 0  9993,2 51809  53.2166 122.3878 0001405  91.4954 268.6199 15.08836222 86070,6917.892,95.438,540.729,538.785,0.0
51809.0,STARLINK-3607,PAYLOAD,2023-09-08 01:16:58,15.0884241,0.0001436,53.217,120.6037,93.8432,266.2724,-3.6337e-05,-8.66e-06,0.0,0 STARLINK-3607,1 51809U 22017AT  23251.05345697 -.00000866  00000-0 -36337-4 0  9995,2 51809  53.2170 120.6037 0001436  93.8432 266.2724 15.08842410 86135,6917.873,95.437,540.731,538.745,0.0
51809.0,STARLINK-3607,PAYLOAD,2023-09-08 18:46:13,15.08836131,0.0001357,53.217,117.3324,92.4238,267.6909,4.0895e-05,3.63e-06,0.0,0 STARLINK-3607,1 51809U 22017AT  23251.78209694  .00000363  00000-0  40895-4 0  9995,2 51809  53.2170 117.3324 0001357  92.4238 267.6909 15.08836131 86243,6917.892,95.438,540.696,538.818,0.0
51809.0,STARLINK-3607,PAYLOAD,2023-09-08 21:56:59,15.08838087,0.0001461,53.2176,116.7376,93.7325,266.3834,5.5466e-05,5.95e-06,0.0,0 STARLINK-3607,1 51809U 22017AT  23251.91457567  .00000595  00000-0  55466-4 0  9991,2 51809  53.2176 116.7376 0001461  93.7325 266.3834 15.08838087 86263,6917.886,95.438,540.762,538.741,0.0
51809.0,STARLINK-3607,PAYLOAD,2023-09-09 07:29:18,15.08835095,0.0001496,53.2179,114.954,90.3285,269.7878,2.9391e-05,1.8e-06,0.0,0 STARLINK-3607,1 51809U 22017AT  23252.31201924  .00000180  00000-0  29391-4 0  9998,2 51809  53.2179 114.9540 0001496  90.3285 269.7878 15.08835095 86323,6917.895,95.438,540.795,538.725,0.0
51809.0,STARLINK-3607,PAYLOAD,2023-09-10 00:58:32,15.0883774,0.0001418,53.2175,111.6824,92.2719,267.8436,4.5311e-05,4.33e-06,0.0,0 STARLINK-3607,1 51809U 22017AT  23253.04065896  .00000433  00000-0  45311-4 0  9996,2 51809  53.2175 111.6824 0001418  92.2719 267.8436 15.08837740 86435,6917.887,95.438,540.733,538.771,0.0
51809.0,STARLINK-3607,PAYLOAD,2023-09-11 07:10:52,15.08839423,0.0001221,53.2163,106.0333,92.5757,267.5375,-6.0262e-06,-3.84e-06,0.0,0 STARLINK-3607,1 51809U 22017AT  23254.29922235 -.00000384  00000-0 -60262-5 0  9993,2 51809  53.2163 106.0333 0001221  92.5757 267.5375 15.08839423 86622,6917.882,95.438,540.592,538.902,0.0
51809.0,STARLINK-3607,PAYLOAD,2023-09-12 00:40:06,15.08846236,0.0001172,53.2161,102.7617,88.3909,271.7217,8.9614e-05,1.139e-05,0.0,0 STARLINK-3607,1 51809U 22017AT  23255.02785561  .00001139  00000-0  89614-4 0  9992,2 51809  53.2161 102.7617 0001172  88.3909 271.7217 15.08846236 86739,6917.861,95.437,540.537,538.916,0.0
51809.0,STARLINK-3607,PAYLOAD,2023-09-12 18:09:22,15.08836935,0.0001236,53.217,99.489,70.4299,289.6827,3.8812e-05,3.3e-06,0.0,0 STARLINK-3607,1 51809U 22017AT  23255.75650484  .00000330  00000-0  38812-4 0  9993,2 51809  53.2170  99.4890 0001236  70.4299 289.6827 15.08836935 86841,6917.89,95.438,540.61,538.9,0.0
51809.0,STARLINK-3607,PAYLOAD,2023-09-12 21:20:08,15.08840771,0.0001307,53.2172,98.895,65.3505,294.7623,8.8841e-05,1.126e-05,0.0,0 STARLINK-3607,1 51809U 22017AT  23255.88898150  .00001126  00000-0  88841-4 0  9992,2 51809  53.2172  98.8950 0001307  65.3505 294.7623 15.08840771 86861,6917.878,95.438,540.647,538.839,0.0
51809.0,STARLINK-3607,PAYLOAD,2023-09-13 13:13:59,15.08847053,0.0001455,53.2183,95.9192,78.3463,281.7692,5.365e-05,5.66e-06,0.0,0 STARLINK-3607,1 51809U 22017AT  23256.55137748  .00000566  00000-0  53650-4 0  9993,2 51809  53.2183  95.9192 0001455  78.3463 281.7692 15.08847053 86963,6917.859,95.437,540.73,538.717,0.0
51809.0,STARLINK-3607,PAYLOAD,2023-09-13 18:00:07,15.08851823,0.000141,53.2179,95.0282,81.1397,278.9755,9.0439e-05,1.152e-05,0.0,0 STARLINK-3607,1 51809U 22017AT  23256.75009164  .00001152  00000-0  90439-4 0  9993,2 51809  53.2179  95.0282 0001410  81.1397 278.9755 15.08851823 86999,6917.844,95.437,540.685,538.734,0.0
51809.0,STARLINK-3607,PAYLOAD,2023-09-13 19:35:31,15.0885168,0.0001511,53.2181,94.7311,74.3427,285.7732,0.00010393,1.367e-05,0.0,0 STARLINK-3607,1 51809U 22017AT  23256.81633150  .00001367  00000-0  10393-3 0  9996,2 51809  53.2181  94.7311 0001511  74.3427 285.7732 15.08851680 87006,6917.845,95.437,540.755,538.664,0.0
51809.0,STARLINK-3607,PAYLOAD,2023-09-14 13:04:47,15.08826141,0.0001051,53.2178,91.4615,71.6648,288.4459,-3.7257e-05,-8.8e-06,0.0,0 STARLINK-3607,1 51809U 22017AT  23257.54499164 -.00000880  00000-0 -37257-4 0  9992,2 51809  53.2178  91.4615 0001051  71.6648 288.4459 15.08826141 87119,6917.923,95.438,540.515,539.061,0.0
51809.0,STARLINK-3607,PAYLOAD,2023-09-14 19:26:19,15.08830609,0.0001286,53.2175,90.2734,77.0371,283.0765,-7.4024e-05,-1.465e-05,0.0,0 STARLINK-3607,1 51809U 22017AT  23257.80995161 -.00001465  00000-0 -74024-4 0  9992,2 51809  53.2175  90.2734 0001286  77.0371 283.0765 15.08830609 87157,6917.909,95.438,540.664,538.884,0.0
